{"type": "FeatureCollection", "features": [{"type": "Feature", "id": "MH", "properties": {"id": "MH", "name": "Maharashtra", "type": "State", "capital": "Mumbai", "center": [19.7515, 75.7139], "bounds": [[15.6, 72.6], [22.0, 80.9]]}, "geometry": {"type": "Polygon", "coordinates": [[[72.6, 18.9], [72.8, 19.8], [72.7, 20.2], [73.3, 20.3], [73.8, 21.4], [74.5, 21.6], [75.8, 21.4], [77.2, 21.7], [78.6, 21.5], [79.5, 21.7], [80.3, 21.4], [80.9, 20.8], [80.5, 19.8], [80.2, 18.7], [79.8, 18.8], [78.5, 19.9], [77.6, 19.2], [77.5, 18.5], [76.7, 18.0], [75.9, 17.5], [75.0, 17.4], [74.3, 16.6], [74.2, 15.8], [73.7, 15.7], [73.3, 16.5], [73.0, 17.5], [72.8, 18.3], [72.6, 18.9]]]}}, {"type": "Feature", "id": "KA", "properties": {"id": "KA", "name": "Karnataka", "type": "State", "capital": "Bengaluru", "center": [15.3173, 75.7139], "bounds": [[11.5, 74.0], [18.4, 78.6]]}, "geometry": {"type": "Polygon", "coordinates": [[[74.0, 14.8], [74.4, 15.8], [75.0, 17.4], [75.9, 17.5], [76.7, 18.0], [77.6, 17.8], [77.7, 16.5], [77.3, 15.6], [77.6, 14.9], [78.3, 13.8], [78.6, 13.2], [77.8, 12.8], [77.0, 11.6], [76.4, 11.9], [75.6, 12.4], [74.8, 12.8], [74.5, 13.5], [74.2, 14.2], [74.0, 14.8]]]}}, {"type": "Feature", "id": "GJ", "properties": {"id": "GJ", "name": "Gujarat", "type": "State", "capital": "Gandhinagar", "center": [22.2587, 71.1924], "bounds": [[20.1, 68.1], [24.7, 74.5]]}, "geometry": {"type": "Polygon", "coordinates": [[[68.2, 23.7], [68.8, 23.8], [70.2, 24.5], [71.5, 24.6], [72.4, 24.5], [73.2, 24.3], [74.3, 23.1], [74.0, 21.6], [73.4, 21.1], [72.9, 20.3], [72.8, 20.8], [72.2, 21.7], [72.0, 22.3], [71.0, 20.8], [69.9, 20.8], [69.0, 22.3], [69.4, 22.9], [70.5, 22.9], [70.4, 23.4], [68.7, 23.4], [68.2, 23.7]]]}}, {"type": "Feature", "id": "TG", "properties": {"id": "TG", "name": "Telangana", "type": "State", "capital": "Hyderabad", "center": [17.8496, 79.1152], "bounds": [[15.8, 77.2], [19.9, 81.3]]}, "geometry": {"type": "Polygon", "coordinates": [[[77.2, 17.8], [77.8, 18.5], [78.5, 19.9], [79.8, 19.8], [80.5, 19.0], [81.2, 18.5], [80.8, 17.5], [80.0, 16.8], [79.5, 16.4], [78.8, 16.0], [77.7, 16.5], [77.2, 17.8]]]}}, {"type": "Feature", "id": "TN", "properties": {"id": "TN", "name": "Tamil Nadu", "type": "State", "capital": "Chennai", "center": [11.1271, 78.6569], "bounds": [[8.0, 76.2], [13.5, 80.3]]}, "geometry": {"type": "Polygon", "coordinates": [[[76.3, 11.8], [77.0, 12.8], [78.6, 13.2], [80.2, 13.4], [80.3, 12.5], [79.8, 10.8], [79.3, 10.3], [79.1, 9.2], [77.5, 8.1], [77.1, 8.5], [77.5, 9.5], [77.0, 10.2], [76.8, 11.0], [76.3, 11.8]]]}}, {"type": "Feature", "id": "DL", "properties": {"id": "DL", "name": "Delhi", "type": "Union Territory", "capital": "New Delhi", "center": [28.7041, 77.1025], "bounds": [[28.4, 76.8], [28.9, 77.4]]}, "geometry": {"type": "Polygon", "coordinates": [[[76.8, 28.5], [76.9, 28.8], [77.2, 28.9], [77.4, 28.7], [77.3, 28.4], [77.0, 28.4], [76.8, 28.5]]]}}, {"type": "Feature", "id": "AP", "properties": {"id": "AP", "name": "Andhra Pradesh", "type": "State", "capital": "Amaravati", "center": [15.9129, 79.74], "bounds": [[12.6, 76.7], [19.1, 84.8]]}, "geometry": {"type": "Polygon", "coordinates": [[[76.8, 14.0], [77.3, 15.6], [77.7, 16.5], [78.8, 16.0], [79.5, 16.4], [80.8, 17.5], [81.5, 17.8], [82.5, 18.0], [83.8, 18.9], [84.7, 19.1], [84.1, 18.3], [83.2, 17.7], [82.3, 16.9], [81.5, 16.2], [80.4, 15.8], [80.1, 14.5], [80.2, 13.5], [79.2, 13.2], [78.3, 12.7], [77.5, 13.5], [76.8, 14.0]]]}}, {"type": "Feature", "id": "KL", "properties": {"id": "KL", "name": "Kerala", "type": "State", "capital": "Thiruvananthapuram", "center": [10.8505, 76.2711], "bounds": [[8.2, 74.8], [12.8, 77.4]]}, "geometry": {"type": "Polygon", "coordinates": [[[74.9, 12.8], [75.6, 12.4], [76.4, 11.9], [76.8, 11.0], [77.0, 10.2], [77.5, 9.5], [77.1, 8.5], [76.8, 8.5], [76.3, 9.3], [75.8, 10.8], [75.1, 12.0], [74.9, 12.8]]]}}, {"type": "Feature", "id": "MP", "properties": {"id": "MP", "name": "Madhya Pradesh", "type": "State", "capital": "Bhopal", "center": [22.9734, 78.6569], "bounds": [[21.1, 74.0], [26.9, 82.8]]}, "geometry": {"type": "Polygon", "coordinates": [[[74.0, 21.6], [74.5, 22.8], [75.0, 24.3], [76.0, 24.8], [76.8, 25.8], [78.0, 26.5], [78.8, 26.8], [79.8, 25.2], [81.3, 25.0], [82.5, 24.5], [82.0, 23.5], [81.6, 22.5], [80.8, 21.8], [79.5, 21.7], [78.6, 21.5], [77.2, 21.7], [75.8, 21.4], [74.5, 21.6], [74.0, 21.6]]]}}, {"type": "Feature", "id": "RJ", "properties": {"id": "RJ", "name": "Rajasthan", "type": "State", "capital": "Jaipur", "center": [27.0238, 74.2179], "bounds": [[23.0, 69.5], [30.2, 78.2]]}, "geometry": {"type": "Polygon", "coordinates": [[[70.0, 26.5], [70.5, 27.8], [71.8, 28.5], [73.5, 29.8], [74.8, 30.1], [75.8, 29.5], [76.8, 28.5], [77.8, 27.5], [78.0, 26.8], [77.0, 25.5], [76.0, 24.8], [74.8, 24.0], [74.3, 23.1], [73.2, 24.3], [72.4, 24.5], [71.5, 24.6], [70.5, 25.2], [70.0, 26.5]]]}}, {"type": "Feature", "id": "UP", "properties": {"id": "UP", "name": "Uttar Pradesh", "type": "State", "capital": "Lucknow", "center": [26.8467, 80.9462], "bounds": [[23.8, 77.0], [30.4, 84.6]]}, "geometry": {"type": "Polygon", "coordinates": [[[77.2, 28.9], [77.5, 30.3], [78.6, 29.8], [80.2, 28.8], [81.5, 28.2], [83.0, 27.4], [84.3, 27.3], [84.4, 25.8], [83.5, 24.8], [83.0, 23.9], [81.8, 24.8], [80.5, 25.1], [78.8, 26.8], [77.8, 27.5], [77.4, 28.7], [77.2, 28.9]]]}}, {"type": "Feature", "id": "WB", "properties": {"id": "WB", "name": "West Bengal", "type": "State", "capital": "Kolkata", "center": [22.9868, 87.855], "bounds": [[21.5, 85.8], [27.2, 89.9]]}, "geometry": {"type": "Polygon", "coordinates": [[[86.0, 22.0], [86.5, 23.5], [87.5, 24.5], [88.0, 25.5], [88.2, 26.8], [89.5, 26.8], [89.8, 26.1], [88.8, 25.2], [88.5, 23.8], [88.8, 22.2], [88.2, 21.6], [87.4, 21.6], [86.0, 22.0]]]}}, {"type": "Feature", "id": "BR", "properties": {"id": "BR", "name": "Bihar", "type": "State", "capital": "Patna", "center": [25.0961, 85.3131], "bounds": [[24.3, 83.3], [27.5, 88.3]]}, "geometry": {"type": "Polygon", "coordinates": [[[83.4, 25.0], [84.0, 27.0], [85.5, 27.4], [87.5, 26.8], [88.1, 26.0], [87.6, 25.0], [86.5, 24.4], [84.5, 24.5], [83.4, 25.0]]]}}, {"type": "Feature", "id": "OR", "properties": {"id": "OR", "name": "Odisha", "type": "State", "capital": "Bhubaneswar", "center": [20.9517, 85.0985], "bounds": [[17.8, 81.4], [22.6, 87.5]]}, "geometry": {"type": "Polygon", "coordinates": [[[81.5, 18.0], [82.5, 19.5], [83.5, 20.8], [84.8, 22.0], [86.5, 22.5], [87.2, 21.6], [86.2, 20.0], [85.0, 19.2], [84.2, 18.5], [82.5, 18.0], [81.5, 18.0]]]}}, {"type": "Feature", "id": "PB", "properties": {"id": "PB", "name": "Punjab", "type": "State", "capital": "Chandigarh", "center": [31.1471, 75.3412], "bounds": [[29.5, 73.8], [32.5, 76.9]]}, "geometry": {"type": "Polygon", "coordinates": [[[74.0, 30.0], [74.5, 31.2], [75.2, 32.2], [76.0, 32.0], [76.6, 31.2], [76.5, 30.5], [75.5, 29.8], [74.0, 30.0]]]}}, {"type": "Feature", "id": "HR", "properties": {"id": "HR", "name": "Haryana", "type": "State", "capital": "Chandigarh", "center": [29.0588, 76.0856], "bounds": [[27.6, 74.4], [30.9, 77.6]]}, "geometry": {"type": "Polygon", "coordinates": [[[74.8, 29.5], [75.5, 29.8], [76.5, 30.5], [77.3, 30.5], [77.5, 29.5], [77.2, 28.5], [76.8, 28.0], [75.8, 28.3], [74.8, 29.5]]]}}, {"type": "Feature", "id": "JH", "properties": {"id": "JH", "name": "Jharkhand", "type": "State", "capital": "Ranchi", "center": [23.6102, 85.2799], "bounds": [[21.9, 83.3], [25.3, 87.9]]}, "geometry": {"type": "Polygon", "coordinates": [[[83.5, 24.2], [85.0, 24.5], [87.5, 24.8], [87.8, 23.5], [86.8, 22.2], [85.2, 22.0], [84.0, 22.8], [83.5, 24.2]]]}}, {"type": "Feature", "id": "CG", "properties": {"id": "CG", "name": "Chhattisgarh", "type": "State", "capital": "Raipur", "center": [21.2787, 81.8661], "bounds": [[17.8, 80.2], [24.1, 84.4]]}, "geometry": {"type": "Polygon", "coordinates": [[[80.5, 21.0], [81.2, 22.5], [82.5, 23.8], [83.5, 23.5], [83.2, 21.8], [82.0, 19.8], [81.2, 18.2], [80.3, 18.8], [80.5, 21.0]]]}}, {"type": "Feature", "id": "AS", "properties": {"id": "AS", "name": "Assam", "type": "State", "capital": "Dispur", "center": [26.2006, 92.9376], "bounds": [[24.1, 89.7], [28.0, 96.0]]}, "geometry": {"type": "Polygon", "coordinates": [[[90.0, 26.0], [91.5, 26.8], [93.5, 27.0], [95.5, 27.8], [96.0, 27.2], [94.0, 26.2], [93.0, 25.0], [92.2, 24.5], [91.0, 25.5], [90.0, 26.0]]]}}, {"type": "Feature", "id": "JK", "properties": {"id": "JK", "name": "Jammu and Kashmir", "type": "Union Territory", "capital": "Srinagar / Jammu", "center": [33.7782, 76.5762], "bounds": [[32.2, 73.8], [35.5, 77.5]]}, "geometry": {"type": "Polygon", "coordinates": [[[74.0, 32.5], [74.2, 34.0], [75.0, 35.0], [76.5, 34.8], [76.8, 33.2], [75.5, 32.5], [74.0, 32.5]]]}}, {"type": "Feature", "id": "LA", "properties": {"id": "LA", "name": "Ladakh", "type": "Union Territory", "capital": "Leh", "center": [34.1526, 77.5771], "bounds": [[32.5, 75.5], [36.0, 80.5]]}, "geometry": {"type": "Polygon", "coordinates": [[[76.0, 34.5], [77.0, 35.8], [78.5, 35.5], [79.8, 34.2], [78.8, 33.0], [77.0, 33.2], [76.0, 34.5]]]}}, {"type": "Feature", "id": "HP", "properties": {"id": "HP", "name": "Himachal Pradesh", "type": "State", "capital": "Shimla", "center": [31.1048, 77.1734], "bounds": [[30.4, 75.8], [33.2, 79.0]]}, "geometry": {"type": "Polygon", "coordinates": [[[76.0, 32.0], [76.8, 33.0], [78.5, 32.5], [78.8, 31.5], [77.5, 30.5], [76.5, 31.2], [76.0, 32.0]]]}}, {"type": "Feature", "id": "UK", "properties": {"id": "UK", "name": "Uttarakhand", "type": "State", "capital": "Dehradun", "center": [30.0668, 79.0193], "bounds": [[28.7, 77.6], [31.4, 81.0]]}, "geometry": {"type": "Polygon", "coordinates": [[[77.8, 30.5], [78.8, 31.2], [80.5, 31.0], [80.9, 29.8], [79.5, 29.0], [78.5, 29.8], [77.8, 30.5]]]}}, {"type": "Feature", "id": "GA", "properties": {"id": "GA", "name": "Goa", "type": "State", "capital": "Panaji", "center": [15.2993, 74.124], "bounds": [[14.9, 73.7], [15.8, 74.4]]}, "geometry": {"type": "Polygon", "coordinates": [[[73.7, 15.5], [73.9, 15.8], [74.3, 15.6], [74.2, 15.0], [73.9, 14.9], [73.7, 15.5]]]}}, {"type": "Feature", "id": "SK", "properties": {"id": "SK", "name": "Sikkim", "type": "State", "capital": "Gangtok", "center": [27.533, 88.5122], "bounds": [[27.0, 88.0], [28.1, 88.9]]}, "geometry": {"type": "Polygon", "coordinates": [[[88.1, 27.2], [88.2, 28.0], [88.8, 28.0], [88.8, 27.2], [88.1, 27.2]]]}}, {"type": "Feature", "id": "AR", "properties": {"id": "AR", "name": "Arunachal Pradesh", "type": "State", "capital": "Itanagar", "center": [28.218, 94.7278], "bounds": [[26.7, 91.6], [29.5, 97.4]]}, "geometry": {"type": "Polygon", "coordinates": [[[92.0, 27.5], [93.5, 28.5], [95.5, 29.0], [97.2, 28.5], [96.5, 27.5], [94.5, 27.2], [92.0, 27.5]]]}}, {"type": "Feature", "id": "ML", "properties": {"id": "ML", "name": "Meghalaya", "type": "State", "capital": "Shillong", "center": [25.467, 91.3662], "bounds": [[25.0, 89.8], [26.1, 92.8]]}, "geometry": {"type": "Polygon", "coordinates": [[[90.0, 25.2], [90.5, 25.8], [92.5, 25.8], [92.5, 25.2], [90.0, 25.2]]]}}, {"type": "Feature", "id": "MN", "properties": {"id": "MN", "name": "Manipur", "type": "State", "capital": "Imphal", "center": [24.6637, 93.9063], "bounds": [[23.8, 93.0], [25.7, 94.8]]}, "geometry": {"type": "Polygon", "coordinates": [[[93.2, 24.2], [93.5, 25.5], [94.5, 25.4], [94.4, 24.0], [93.2, 24.2]]]}}, {"type": "Feature", "id": "NL", "properties": {"id": "NL", "name": "Nagaland", "type": "State", "capital": "Kohima", "center": [26.1584, 94.5624], "bounds": [[25.2, 93.3], [27.0, 95.2]]}, "geometry": {"type": "Polygon", "coordinates": [[[93.5, 25.6], [94.2, 26.8], [95.0, 26.8], [94.5, 25.5], [93.5, 25.6]]]}}, {"type": "Feature", "id": "MZ", "properties": {"id": "MZ", "name": "Mizoram", "type": "State", "capital": "Aizawl", "center": [23.1645, 92.9376], "bounds": [[21.9, 92.2], [24.5, 93.4]]}, "geometry": {"type": "Polygon", "coordinates": [[[92.3, 22.0], [92.6, 24.2], [93.2, 24.2], [93.1, 22.5], [92.3, 22.0]]]}}, {"type": "Feature", "id": "TR", "properties": {"id": "TR", "name": "Tripura", "type": "State", "capital": "Agartala", "center": [23.9408, 91.9882], "bounds": [[22.9, 91.1], [24.5, 92.3]]}, "geometry": {"type": "Polygon", "coordinates": [[[91.2, 23.0], [91.4, 24.3], [92.2, 24.2], [92.0, 23.1], [91.2, 23.0]]]}}, {"type": "Feature", "id": "CH", "properties": {"id": "CH", "name": "Chandigarh", "type": "Union Territory", "capital": "Chandigarh", "center": [30.7333, 76.7794], "bounds": [[30.6, 76.6], [30.8, 76.9]]}, "geometry": {"type": "Polygon", "coordinates": [[[76.6, 30.6], [76.7, 30.8], [76.9, 30.8], [76.8, 30.6], [76.6, 30.6]]]}}, {"type": "Feature", "id": "PY", "properties": {"id": "PY", "name": "Puducherry", "type": "Union Territory", "capital": "Pondicherry", "center": [11.9416, 79.8083], "bounds": [[11.8, 79.7], [12.0, 79.9]]}, "geometry": {"type": "Polygon", "coordinates": [[[79.7, 11.8], [79.7, 12.0], [79.9, 12.0], [79.9, 11.8], [79.7, 11.8]]]}}, {"type": "Feature", "id": "DN", "properties": {"id": "DN", "name": "Dadra and Nagar Haveli and Daman and Diu", "type": "Union Territory", "capital": "Daman", "center": [20.4283, 72.8397], "bounds": [[20.0, 72.6], [20.7, 73.2]]}, "geometry": {"type": "Polygon", "coordinates": [[[72.7, 20.2], [72.8, 20.6], [73.1, 20.5], [73.0, 20.1], [72.7, 20.2]]]}}, {"type": "Feature", "id": "AN", "properties": {"id": "AN", "name": "Andaman and Nicobar Islands", "type": "Union Territory", "capital": "Port Blair", "center": [11.7401, 92.6586], "bounds": [[6.8, 92.2], [13.7, 94.0]]}, "geometry": {"type": "Polygon", "coordinates": [[[92.5, 11.2], [92.6, 13.5], [93.0, 13.5], [92.9, 11.2], [92.5, 11.2]]]}}, {"type": "Feature", "id": "LD", "properties": {"id": "LD", "name": "Lakshadweep", "type": "Union Territory", "capital": "Kavaratti", "center": [10.5667, 72.6417], "bounds": [[8.2, 71.5], [12.4, 74.0]]}, "geometry": {"type": "Polygon", "coordinates": [[[72.4, 10.2], [72.5, 11.5], [72.9, 11.5], [72.8, 10.2], [72.4, 10.2]]]}}]}